{
  "type": "FeatureCollection",
  "features": [
    {
      "type": "Feature",
      "properties": {
        "norad_id": 41890,
        "name": "CYGFM07",
        "group": "weather",
        "lat": 29.027974380790045,
        "lon": -7.413391699856786,
        "alt_km": 410.422699231367,
        "timestamp": "2025-12-25T03:55:55.948846+00:00",
        "meta_object_name": "CYGFM07",
        "meta_object_id": "2016-078G",
        "meta_epoch": "2025-12-24T04:30:16.863552",
        "meta_mean_motion": 15.50478038,
        "meta_eccentricity": 0.00095557,
        "meta_inclination": 34.948,
        "meta_ra_of_asc_node": 306.3693,
        "meta_arg_of_pericenter": 312.2172,
        "meta_mean_anomaly": 47.7739,
        "meta_ephemeris_type": 0,
        "meta_classification_type": "U",
        "meta_norad_cat_id": 41890,
        "meta_element_set_no": 999,
        "meta_rev_at_epoch": 50173,
        "meta_bstar": 0.00041713865,
        "meta_mean_motion_dot": 0.00024601,
        "meta_mean_motion_ddot": 0,
        "tle_line1": "1 41890U 16078G   25358.18769518  .00024601  00000+0  41714-3 0  9994",
        "tle_line2": "2 41890  34.9480 306.3693 0009555 312.2172  47.7739 15.50478038501738"
      },
      "geometry": {
        "type": "Point",
        "coordinates": [
          -7.413391699856786,
          29.027974380790045
        ]
      }
    },
    {
      "type": "Feature",
      "properties": {
        "norad_id": 41891,
        "name": "CYGFM03",
        "group": "weather",
        "lat": -32.03522909060174,
        "lon": -174.45293538831916,
        "alt_km": 414.360719711457,
        "timestamp": "2025-12-25T03:55:55.948857+00:00",
        "meta_object_name": "CYGFM03",
        "meta_object_id": "2016-078H",
        "meta_epoch": "2025-12-24T05:13:56.561664",
        "meta_mean_motion": 15.50374029,
        "meta_eccentricity": 0.00093426,
        "meta_inclination": 34.9436,
        "meta_ra_of_asc_node": 308.0966,
        "meta_arg_of_pericenter": 299.8769,
        "meta_mean_anomaly": 60.1025,
        "meta_ephemeris_type": 0,
        "meta_classification_type": "U",
        "meta_norad_cat_id": 41891,
        "meta_element_set_no": 999,
        "meta_rev_at_epoch": 50171,
        "meta_bstar": 0.00040581852,
        "meta_mean_motion_dot": 0.00023839,
        "meta_mean_motion_ddot": 0,
        "tle_line1": "1 41891U 16078H   25358.21801576  .00023839  00000+0  40582-3 0  9994",
        "tle_line2": "2 41891  34.9436 308.0966 0009342 299.8769  60.1025 15.50374029501718"
      },
      "geometry": {
        "type": "Point",
        "coordinates": [
          -174.45293538831916,
          -32.03522909060174
        ]
      }
    },
    {
      "type": "Feature",
      "properties": {
        "norad_id": 43010,
        "name": "FENGYUN 3D",
        "group": "weather",
        "lat": 68.05665906823339,
        "lon": 168.80167334622283,
        "alt_km": 818.8803351260885,
        "timestamp": "2025-12-25T03:55:55.948868+00:00",
        "meta_object_name": "FENGYUN 3D",
        "meta_object_id": "2017-072A",
        "meta_epoch": "2025-12-24T20:38:59.264160",
        "meta_mean_motion": 14.19686438,
        "meta_eccentricity": 0.0001528,
        "meta_inclination": 98.9913,
        "meta_ra_of_asc_node": 325.3525,
        "meta_arg_of_pericenter": 148.4324,
        "meta_mean_anomaly": 211.6944,
        "meta_ephemeris_type": 0,
        "meta_classification_type": "U",
        "meta_norad_cat_id": 43010,
        "meta_element_set_no": 999,
        "meta_rev_at_epoch": 42025,
        "meta_bstar": -9.0401e-05,
        "meta_mean_motion_dot": -2.37e-06,
        "meta_mean_motion_ddot": 0,
        "tle_line1": "1 43010U 17072A   25358.86040815 -.00000237  00000+0 -90401-4 0  9991",
        "tle_line2": "2 43010  98.9913 325.3525 0001528 148.4324 211.6944 14.19686438420256"
      },
      "geometry": {
        "type": "Point",
        "coordinates": [
          168.80167334622283,
          68.05665906823339
        ]
      }
    },
    {
      "type": "Feature",
      "properties": {
        "norad_id": 43013,
        "name": "NOAA 20 (JPSS-1)",
        "group": "weather",
        "lat": -72.77468436559809,
        "lon": 85.49602502499592,
        "alt_km": 835.7081586766953,
        "timestamp": "2025-12-25T03:55:55.948879+00:00",
        "meta_object_name": "NOAA 20 (JPSS-1)",
        "meta_object_id": "2017-073A",
        "meta_epoch": "2025-12-24T19:58:03.384768",
        "meta_mean_motion": 14.19528852,
        "meta_eccentricity": 0.0002072,
        "meta_inclination": 98.7615,
        "meta_ra_of_asc_node": 294.9973,
        "meta_arg_of_pericenter": 69.8824,
        "meta_mean_anomaly": 290.2575,
        "meta_ephemeris_type": 0,
        "meta_classification_type": "U",
        "meta_norad_cat_id": 43013,
        "meta_element_set_no": 999,
        "meta_rev_at_epoch": 41973,
        "meta_bstar": 6.2649e-05,
        "meta_mean_motion_dot": 8.8e-07,
        "meta_mean_motion_ddot": 0,
        "tle_line1": "1 43013U 17073A   25358.83198362  .00000088  00000+0  62649-4 0  9998",
        "tle_line2": "2 43013  98.7615 294.9973 0002072  69.8824 290.2575 14.19528852419739"
      },
      "geometry": {
        "type": "Point",
        "coordinates": [
          85.49602502499592,
          -72.77468436559809
        ]
      }
    },
    {
      "type": "Feature",
      "properties": {
        "norad_id": 43226,
        "name": "GOES 17",
        "group": "weather",
        "lat": -0.1947296683893144,
        "lon": 63.42732819872031,
        "alt_km": 35796.523490675914,
        "timestamp": "2025-12-25T03:55:55.948897+00:00",
        "meta_object_name": "GOES 17",
        "meta_object_id": "2018-022A",
        "meta_epoch": "2025-12-24T12:40:28.511328",
        "meta_mean_motion": 1.00272185,
        "meta_eccentricity": 0.0003083,
        "meta_inclination": 0.4862,
        "meta_ra_of_asc_node": 89.0612,
        "meta_arg_of_pericenter": 190.9002,
        "meta_mean_anomaly": 273.9584,
        "meta_ephemeris_type": 0,
        "meta_classification_type": "U",
        "meta_norad_cat_id": 43226,
        "meta_element_set_no": 999,
        "meta_rev_at_epoch": 2867,
        "meta_bstar": 0,
        "meta_mean_motion_dot": -1.62e-06,
        "meta_mean_motion_ddot": 0,
        "tle_line1": "1 43226U 18022A   25358.52810777 -.00000162  00000+0  00000+0 0  9998",
        "tle_line2": "2 43226   0.4862  89.0612 0003083 190.9002 273.9584  1.00272185 28677"
      },
      "geometry": {
        "type": "Point",
        "coordinates": [
          63.42732819872031,
          -0.1947296683893144
        ]
      }
    },
    {
      "type": "Feature",
      "properties": {
        "norad_id": 43491,
        "name": "FENGYUN 2H",
        "group": "weather",
        "lat": 1.2377712162410615,
        "lon": -127.73821470412784,
        "alt_km": 35776.52259670963,
        "timestamp": "2025-12-25T03:55:55.948914+00:00",
        "meta_object_name": "FENGYUN 2H",
        "meta_object_id": "2018-050A",
        "meta_epoch": "2025-12-24T20:19:29.555040",
        "meta_mean_motion": 1.00270525,
        "meta_eccentricity": 0.00024,
        "meta_inclination": 2.5801,
        "meta_ra_of_asc_node": 81.202,
        "meta_arg_of_pericenter": 166.5651,
        "meta_mean_anomaly": 230.06,
        "meta_ephemeris_type": 0,
        "meta_classification_type": "U",
        "meta_norad_cat_id": 43491,
        "meta_element_set_no": 999,
        "meta_rev_at_epoch": 2769,
        "meta_bstar": 0,
        "meta_mean_motion_dot": -1.09e-06,
        "meta_mean_motion_ddot": 0,
        "tle_line1": "1 43491U 18050A   25358.84686985 -.00000109  00000+0  00000+0 0  9991",
        "tle_line2": "2 43491   2.5801  81.2020 0002400 166.5651 230.0600  1.00270525 27695"
      },
      "geometry": {
        "type": "Point",
        "coordinates": [
          -127.73821470412784,
          1.2377712162410615
        ]
      }
    },
    {
      "type": "Feature",
      "properties": {
        "norad_id": 43689,
        "name": "METOP-C",
        "group": "weather",
        "lat": 55.411485320327984,
        "lon": -110.44170643013176,
        "alt_km": 815.1510006028457,
        "timestamp": "2025-12-25T03:55:55.948937+00:00",
        "meta_object_name": "METOP-C",
        "meta_object_id": "2018-087A",
        "meta_epoch": "2025-12-24T18:54:23.093856",
        "meta_mean_motion": 14.21488848,
        "meta_eccentricity": 6.55e-05,
        "meta_inclination": 98.6912,
        "meta_ra_of_asc_node": 56.3718,
        "meta_arg_of_pericenter": 17.2295,
        "meta_mean_anomaly": 342.8904,
        "meta_ephemeris_type": 0,
        "meta_classification_type": "U",
        "meta_norad_cat_id": 43689,
        "meta_element_set_no": 999,
        "meta_rev_at_epoch": 37005,
        "meta_bstar": 7.7537e-05,
        "meta_mean_motion_dot": 1.26e-06,
        "meta_mean_motion_ddot": 0,
        "tle_line1": "1 43689U 18087A   25358.78776729  .00000126  00000+0  77537-4 0  9991",
        "tle_line2": "2 43689  98.6912  56.3718 0000655  17.2295 342.8904 14.21488848370052"
      },
      "geometry": {
        "type": "Point",
        "coordinates": [
          -110.44170643013176,
          55.411485320327984
        ]
      }
    }
  ]
}